[{"OBJECT_NAME":"STARLINK-4719","OBJECT_ID":"2022-111B","EPOCH":"2026-03-09T20:43:05.634624","MEAN_MOTION":15.08845552,"ECCENTRICITY":0.00012818,"INCLINATION":53.2162,"RA_OF_ASC_NODE":283.2276,"ARG_OF_PERICENTER":98.5226,"MEAN_ANOMALY":261.5912,"EPHEMERIS_TYPE":0,"CLASSIFICATION_TYPE":"U","NORAD_CAT_ID":53774,"ELEMENT_SET_NO":999,"REV_AT_EPOCH":19373,"BSTAR":8.1658288e-5,"MEAN_MOTION_DOT":1.012e-5,"MEAN_MOTION_DDOT":0},{"OBJECT_NAME":"UNISAT-5","OBJECT_ID":"2013-066F","EPOCH":"2026-03-09T22:02:55.134816","MEAN_MOTION":15.04155626,"ECCENTRICITY":0.00317175,"INCLINATION":97.6976,"RA_OF_ASC_NODE":39.5171,"ARG_OF_PERICENTER":68.1555,"MEAN_ANOMALY":292.3039,"EPHEMERIS_TYPE":0,"CLASSIFICATION_TYPE":"U","NORAD_CAT_ID":39421,"ELEMENT_SET_NO":999,"REV_AT_EPOCH":66774,"BSTAR":0.0004680489,"MEAN_MOTION_DOT":6.504e-5,"MEAN_MOTION_DDOT":0}]
